[
    {
        "Altitude(m)": 611967.2021351879,
        "Argument of Periapsis(deg)": 0.0,
        "Eccentricity": 0.0,
        "Inclination(deg)": 60.0,
        "Latitude(deg)": 59.140231910634455,
        "Longitude(deg)": 141.09219199110169,
        "Mean Anomaly(deg)": 98.18179999999998,
        "RAAN(deg)": 135.0,
        "Satellite Name": "Test1 600",
        "Satellite Number": 600,
        "Semi-Major Axis(m)": 6980739.136638005,
        "Time(s)": 0
    },
    {
        "Altitude(m)": 611934.4015378525,
        "Argument of Periapsis(deg)": 0.00010418945913296404,
        "Eccentricity": 0.0,
        "Inclination(deg)": 60.0,
        "Latitude(deg)": 58.98659250538792,
        "Longitude(deg)": 142.21543916891443,
        "Mean Anomaly(deg)": 98.80190614546179,
        "RAAN(deg)": 134.99957995086024,
        "Satellite Name": "Test1 600",
        "Satellite Number": 600,
        "Semi-Major Axis(m)": 6980739.136638005,
        "Time(s)": 10
    }
]